{"spkid": "50596865", "covariance": {"epoch": "2456300.5", "elements": [{"units": null, "value": ".4358286814287446", "title": "eccentricity", "name": "e", "sigma": 6.09729884855707e-07, "label": "e"}, {"label": "q", "value": ".4266305876756054", "title": "perihelion distance", "units": "au", "sigma": 4.7674867765155e-07, "name": "q"}, {"label": "tp", "name": "tp", "sigma": 5.62353774237758e-05, "units": "TDB", "title": "time of perihelion passage", "value": "2456332.048920509948"}, {"label": "node", "title": "longitude of the ascending node", "value": "117.7313447738615", "units": "deg", "sigma": 5.14410939685478e-05, "name": "om"}, {"label": "peri", "name": "w", "sigma": 5.49881461756246e-05, "units": "deg", "title": "argument of perihelion", "value": "196.2895370241517"}, {"units": "deg", "title": "inclination", "value": "6.02802432427023", "name": "i", "sigma": 2.75875966597538e-05, "label": "i"}], "data": [["3.717705324861533E-13", "-2.906833979832358E-13", "1.218638946066136E-11", "-7.826674130254509E-12", "7.549200798436343E-12", "1.050934167956559E-11"], ["-2.906833979832358E-13", "2.272893016425015E-13", "-9.470961983299576E-12", "6.136163940934141E-12", "-5.875625083575527E-12", "-8.21287888147949E-12"], ["1.218638946066136E-11", "-9.470961983299576E-12", "3.16241767399451E-9", "4.446010108013133E-10", "1.551420916358864E-9", "6.629934551133379E-10"], ["-7.826674130254509E-12", "6.136163940934141E-12", "4.446010108013133E-10", "2.646186148680962E-9", "-2.099257594893966E-9", "6.211737369974852E-10"], ["7.549200798436343E-12", "-5.875625083575527E-12", "1.551420916358864E-9", "-2.099257594893966E-9", "3.023696219831853E-9", "-3.863966453901224E-10"], ["1.050934167956559E-11", "-8.21287888147949E-12", "6.629934551133379E-10", "6.211737369974852E-10", "-3.863966453901224E-10", "7.610754894612592E-10"]], "labels": ["e", "q", "tp", "node", "peri", "i"]}, "elements": [{"units": null, "value": ".4361190209696891", "title": "eccentricity", "sigma": "6.0814E-7", "name": "e", "label": "e"}, {"label": "a", "units": "au", "title": "semi-major axis", "value": ".756015967510333", "sigma": "1.8747E-8", "name": "a"}, {"title": "perihelion distance", "value": ".4263030239222743", "units": "au", "sigma": "4.7021E-7", "name": "q", "label": "q"}, {"label": "i", "title": "inclination; angle with respect to x-y ecliptic plane", "value": "6.018199105251974", "units": "deg", "sigma": "2.7651E-5", "name": "i"}, {"label": "node", "name": "om", "sigma": "5.1815E-5", "units": "deg", "title": "longitude of the ascending node", "value": "117.5109396998596"}, {"label": "peri", "name": "w", "sigma": "5.5145E-5", "units": "deg", "value": "196.4636603237192", "title": "argument of perihelion"}, {"label": "M", "units": "deg", "title": "mean anomaly", "value": "98.0184340752559", "name": "ma", "sigma": ".00034624"}, {"label": "tp", "units": "TDB", "title": "time of perihelion passage", "value": "2461135.126740649765", "name": "tp", "sigma": ".00022859"}, {"label": "period", "sigma": "8.9309E-6", "name": "per", "units": "d", "title": "sidereal orbital period", "value": "240.1015032337227"}, {"label": "n", "units": "deg/d", "value": "1.499365872980662", "title": "mean motion", "sigma": "5.5771E-8", "name": "n"}, {"value": "1.085728911098392", "title": "aphelion distance", "units": "au", "sigma": "2.6924E-8", "name": "ad", "label": "Q"}], "epoch": "2461200.5"}